STARLINK-3789           
1 52283U 22041Y   26068.79656661 -.00000395  00000+0 -67074-5 0  9994
2 52283  53.2155 108.6408 0001291  85.4740 274.6400 15.08836964214382
DISKSAT D               
1 67221U 25305C   26068.55257179  .00011599  00000+0  76841-3 0  9999
2 67221  45.0023 251.6339 0003712 319.2749  40.7848 15.07416577 12277
